LIME                    
1 62648U 25009AR  26068.73906781  .00013254  00000+0  47723-3 0  9995
2 62648  97.3985 151.4831 0001635  35.9029 324.2320 15.28703313 63766
STARLINK-36409          
1 67406U 26005C   26068.48508282  .00042276  00000+0  15358-2 0  9999
2 67406  42.9972 239.2756 0001820 274.1600  85.9044 15.27606185  8664
